NUSAT-1 (FRESCO)        
1 41557U 16033B   22274.12895138  .00016743  00000+0  46232-3 0  9999
2 41557  97.3902  12.1814 0010062   5.7789  89.3955 15.37090709353603
BEESAT-4                
1 41619U 16040W   22273.38139099  .00018789  00000+0  57610-3 0  9994
2 41619  97.2050 321.3246 0010584 101.4170 258.8262 15.33761272336797
CAS-2T & KS-1Q          
1 41847U 16066G   22273.63919718  .00001042  00000+0  16723-3 0  9991
2 41847  98.5405 338.1535 0362141 255.1487 100.9332 14.38742937309473
NAYIF-1 (EO-88)         
1 42017U 17008BX  22274.16033108  .00022673  00000+0  61134-3 0  9996
2 42017  97.2576 338.8985 0004020 207.6444 152.4587 15.37805160313307
ZHUHAI-1 02 (CAS-4B)    
1 42759U 17034B   22274.07141524  .00004446  00000+0  26260-3 0  9999
2 42759  43.0170 110.2554 0010371 241.4120 263.8018 15.12589282292349
ZHUHAI-1 01 (CAS-4A)    
1 42761U 17034D   22274.03349567  .00004180  00000+0  24713-3 0  9991
2 42761  43.0166 109.1721 0010780 242.7028 253.3658 15.12667154292344
MAX VALIER SAT          
1 42778U 17036P   22274.10549807  .00011844  00000+0  42901-3 0  9992
2 42778  97.1952 311.6217 0008828 317.4583  42.5973 15.28493286293036
RADFXSAT (FOX-1B)       
1 43017U 17073E   22274.12336802  .00004447  00000+0  33407-3 0  9993
2 43017  97.6585 163.9661 0245678 201.2561 157.8309 14.82101543262763
FOX-1D (AO-92)          
1 43137U 18004AC  22274.16018571  .00013890  00000+0  46227-3 0  9991
2 43137  97.3598 348.4450 0006908 358.2558   1.8658 15.31236325262502
DIWATA-2B               
1 43678U 18084H   22274.19410151  .00000820  00000+0  86007-4 0  9992
2 43678  97.9858  48.7985 0008681 301.7701  58.2696 14.92327634213620
ES'HAIL 2               
1 43700U 18090A   22274.12386340  .00000144  00000+0  00000+0 0  9993
2 43700   0.0188 155.7752 0002232  63.8233 220.6461  1.00272660 14335
FOX-1CLIFF (AO-95)      
1 43770U 18099N   22273.62371939  .00003174  00000+0  28125-3 0  9999
2 43770  97.6101 337.2169 0012633 284.6909  75.2912 14.96876989208745
ITASAT 1                
1 43786U 18099AE  22273.60876701  .00005818  00000+0  51003-3 0  9999
2 43786  97.6138 338.1755 0012839 276.1143  83.8616 14.96968725208787
JY1SAT (JO-97)          
1 43803U 18099AX  22274.12307821  .00004089  00000+0  35468-3 0  9995
2 43803  97.6086 338.4661 0012918 271.4837  88.4905 14.97554656208882
UWE-4                   
1 43880U 18111E   22274.17959967  .00003601  00000+0  30418-3 0  9993
2 43880  97.6576 178.6242 0011499 333.8440  26.2201 14.98674306203538
NEXUS (FO-99)           
1 43937U 19003F   22273.80147492  .00019404  00000+0  60590-3 0  9990
2 43937  97.1227 303.1655 0021108 133.0535 227.2480 15.33004672206106
PSAT2 (NO-104)          
1 44354U 19036R   22274.06390590  .00137343 -16035-5  97333-3 0  9998
2 44354  28.5204 160.2729 0187105  90.6474 271.5570 15.52511486181029
JAISAT-1                
1 44419U 19038F   22273.90443219  .00012922  00000+0  62034-3 0  9994
2 44419  97.6480 245.0434 0020569 122.9837 237.3377 15.18808055179059
DUCHIFAT-3              
1 44854U 19089C   22274.21285517  .00004706  00000+0  36062-3 0  9996
2 44854  36.9648 193.0764 0008684 351.2711 162.6884 15.01710384153834
CAS-6 (TIANQIN 1)       
1 44881U 19093C   22274.12427973  .00000643  00000+0  87987-4 0  9994
2 44881  97.8867 351.7903 0014342 197.6290 162.4436 14.81832704150424
RS-44 & BREEZE-KM R/B   
1 44909U 19096E   22273.65931998  .00000030  00000+0  69145-4 0  9998
2 44909  82.5237 160.4005 0218389  73.7924 288.7087 12.79715275128966
ORBITAL FACTORY 2 (OF-2)
1 45113U 19071C   22274.25153300  .00044090  00000+0  75201-3 0  9992
2 45113  51.6360 256.8874 0007140 186.8968 173.1924 15.50872326149768
HUSKYSAT-1 (HO-107)     
1 45119U 19071J   22274.21274263  .00035917  00000+0  65169-3 0  9996
2 45119  51.6366 258.0952 0007322 183.8275 176.2659 15.49213415149733
BY70-2                  
1 45857U 20042B   22274.14110376  .00007607  00000+0  98801-3 0  9995
2 45857  97.9502 350.0251 0011601 132.1022 228.1211 14.80956252121091
SALSAT                  
1 46495U 20068K   22273.83177235  .00003724  00000+0  26682-3 0  9998
2 46495  97.7371 215.2240 0014325 282.4044  77.5579 15.04931936110035
BY70-3                  
1 46839U 20079N   22274.20273206  .00033990  00000+0  68462-3 0  9999
2 46839  97.1883 345.1591 0003706 311.5706 106.8545 15.46498694106568
RADFXSAT-2 (AO-109)     
1 47311U 21002C   22273.63081759  .00012008  00000+0  45427-3 0  9991
2 47311  60.6851 325.8814 0034366  45.3966 314.9917 15.26835271 94513
UVSQ-SAT                
1 47438U 21006AB  22274.13799813  .00007244  00000+0  37186-3 0  9997
2 47438  97.4255 330.9894 0010002 266.9202  93.0887 15.16772476 93290
DIY-1 (ARDUIQUBE)       
1 47963U 21022AH  22274.16627804  .00021317  00000+0  10925-2 0  9999
2 47963  97.5185 174.4414 0017874 121.8533 238.4442 15.16453026 82955
XW-3 (CAS-9)            
1 50466U 21131B   22274.17575947  .00000303  00000+0  11382-3 0  9994
2 50466  98.5742 351.3488 0004742 180.1139 180.0048 14.38532312 40119
TEVEL-3                 
1 50988U 22002E   22274.23881803  .00008663  00000+0  45790-3 0  9996
2 50988  97.4715 339.4838 0010609  64.0381   9.2281 15.15673012 39433
TEVEL-8                 
1 50989U 22002F   22274.11292631  .00008601  00000+0  45541-3 0  9995
2 50989  97.4733 339.3899 0010617  64.5699 354.3816 15.15616685 39415
TEVEL-5                 
1 50998U 22002Q   22274.15575969  .00008743  00000+0  45540-3 0  9993
2 50998  97.4709 339.5587 0011919  58.9646 353.7921 15.16178584 39433
TEVEL-6                 
1 50999U 22002R   22274.15500409  .00008725  00000+0  45438-3 0  9997
2 50999  97.4707 339.5557 0011843  59.5861 352.6840 15.16184017 39437
TEVEL-1                 
1 51013U 22002AF  22274.23792641  .00008663  00000+0  45826-3 0  9997
2 51013  97.4713 339.4565 0010438  62.5516 344.1213 15.15645565 39439
TEVEL-7                 
1 51062U 22002CG  22274.24272483  .00008622  00000+0  45658-3 0  9997
2 51062  97.4728 339.5008 0010418  62.8678 333.4921 15.15612289 39436
TEVEL-4                 
1 51063U 22002CH  22274.24522813  .00008544  00000+0  45260-3 0  9995
2 51063  97.4725 339.4993 0010415  62.8537 341.1587 15.15600857 39439
TEVEL-2                 
1 51069U 22002CP  22274.17060539  .00008662  00000+0  45796-3 0  9990
2 51069  97.4715 339.4016 0010516  64.5020 348.5535 15.15665113 39427
GREENCUBE               
1 53106U 22080B   22270.63842984 -.00000003  00000+0  00000+0 0  9996
2 53106  70.1628  50.9274 0008650 240.4290 119.5508  6.42557874  4885
YUZGU 9 (RS3S)          
1 53308U 98067TT  22274.12578078  .00063377  00000+0  89712-3 0  9999
2 53308  51.6391 170.4224 0002517 219.0996 140.9813 15.55890353 11177
YUZGU 7 (RS1S)          
1 53309U 98067TU  22274.12205887  .00063635  00000+0  89421-3 0  9999
2 53309  51.6386 170.3953 0002079 236.8496 123.2296 15.56087447 11122
YUZGU 11 (RS5S)         
1 53310U 98067TV  22274.12540813  .00062433  00000+0  88374-3 0  9993
2 53310  51.6391 170.4208 0001931 232.8580 127.2235 15.55898421 11151
YUZGU 12 (RS6S)         
1 53311U 98067TW  22274.11610393  .00069040  00000+0  96054-3 0  9999
2 53311  51.6384 170.3548 0002862 211.0000 149.0823 15.56320545 11175
TSIOLKOVSKY-RYAZAN 1 (*)
1 53312U 98067TX  22274.12012786  .00064785  00000+0  90993-3 0  9990
2 53312  51.6391 170.3842 0001983 243.0297 117.0492 15.56092870 11115
TSIOLKOVSKY-RYAZAN 2 (*)
1 53313U 98067TY  22274.11817068  .00064019  00000+0  89814-3 0  9996
2 53313  51.6390 170.3715 0001602 232.7515 127.3330 15.56129462 11168
YUZGU 10 (RS4S)         
1 53321U 98067TZ  22274.12541203  .00062495  00000+0  88192-3 0  9995
2 53321  51.6393 170.4226 0002311 223.1190 136.9621 15.55979984 11169
RS29S (SXC3-2110 CYCLO*)
1 53373U 22096D   22274.22588734  .00011432  00000+0  45689-3 0  9991
2 53373  97.4302 175.3021 0002869  50.8658 100.6253 15.25277384  8069
RS32S (SXC3-212 MONITO*)
1 53374U 22096E   22274.22208719  .00011526  00000+0  45905-3 0  9999
2 53374  97.4301 175.3062 0002483  47.5007 103.9579 15.25393109  8068
RS34S (SXC3-218 KUZBAS*)
1 53375U 22096F   22274.28238329  .00009217  00000+0  36880-3 0  9992
2 53375  97.4303 175.3649 0002529  43.2225  75.0539 15.25297310  8071
RS23S (SXC3-21 UTMN)    
1 53376U 22096G   22274.15401488  .00009778  00000+0  39082-3 0  9996
2 53376  97.4304 175.2394 0002585  39.0801 100.3116 15.25317393  8059
RS28S (SXC3-214 MIET-A*)
1 53377U 22096H   22274.08221363  .00009243  00000+0  36936-3 0  9993
2 53377  97.4312 175.1721 0002387  43.2962  68.0317 15.25342361  8042
RS26S (KAI-1)           
1 53378U 22096J   22274.08201065  .00008499  00000+0  34026-3 0  9991
2 53378  97.4304 175.1708 0002083  40.9930  71.0129 15.25306371  8047
RS19S (SXC3-219 ISOI)   
1 53381U 22096M   22274.13667183  .00009704  00000+0  38242-3 0  9992
2 53381  97.4308 175.2607 0001988 266.7476 227.4240 15.25794873  8050
RS21S (CUBESX-HSE-2)    
1 53383U 22096P   22274.20368729  .00008857  00000+0  34897-3 0  9996
2 53383  97.4302 175.3316 0002126 259.0204 253.2989 15.25827191  8061
RS30S (SXC3-217 SIREN)  
1 53384U 22096Q   22274.20329168  .00008628  00000+0  34011-3 0  9995
2 53384  97.4312 175.3322 0002222 260.4194 251.5137 15.25820066  8061
RS20S (GEOSCAN-EDELVEIS)
1 53385U 22096R   22274.19593049  .00011853  00000+0  46116-3 0  9998
2 53385  97.4302 175.3420 0002534 263.3951 249.8154 15.26168377  8092
RS33S (SXC3-215 VIZARD) 
1 53386U 22096S   22274.18669848  .00014440  00000+0  55446-3 0  9990
2 53386  97.4303 175.3555 0003298 264.5265 250.4149 15.26556974  8087
